INTELSAT 10 (IS-10)     
1 26766U 01019A   26062.82928310 -.00000297  00000+0  00000+0 0  9994
2 26766   8.8245  60.3264 0005997 265.5847 279.9653  0.99042030 44538
INTELSAT 902 (IS-902)   
1 26900U 01039A   26062.03863722 -.00000296  00000+0  00000+0 0  9993
2 26900   5.8488  73.0785 0004598 274.7996 136.7372  1.00270738 89635
INTELSAT 904 (IS-904)   
1 27380U 02007A   26062.86550995 -.00000236  00000+0  00000+0 0  9992
2 27380   6.6574  70.4474 0006109 305.4536  65.8068  1.00273362 50718
DIRECTV 5 (TEMPO 1)     
1 27426U 02023A   26063.13520759 -.00000067  00000+0  00000+0 0  9999
2 27426   4.6098  76.6238 0003607 274.1465 109.6848  1.00272238 87070
INTELSAT 905 (IS-905)   
1 27438U 02027A   26063.12983422  .00000084  00000+0  00000+0 0  9993
2 27438   6.4900  71.0640 0003163 276.6750  83.6850  1.00273422 50308
GALAXY 3C (G-3C)        
1 27445U 02030A   26063.15225881 -.00000163  00000+0  00000+0 0  9995
2 27445   3.4639  79.4641 0001010  27.1185  15.2928  1.00271638 45448
INTELSAT 906 (IS-906)   
1 27513U 02041A   26062.54820634  .00000001  00000+0  00000+0 0  9992
2 27513   5.5340  74.2228 0003244 256.5254  92.0662  1.00272758 85969
GALAXY 13 (HORIZONS-1)  
1 27954U 03044A   26063.19211308  .00000121  00000+0  00000+0 0  9992
2 27954   1.1463  85.3030 0002180 260.5146  95.2699  1.00272475 45511
INTELSAT 10-02          
1 28358U 04022A   26062.87157664 -.00000025  00000+0  00000+0 0  9990
2 28358   0.0154 123.3623 0001075 255.3819  95.6326  1.00272329 79502
DIRECTV 8               
1 28659U 05019A   26063.13338757 -.00000011  00000+0  00000+0 0  9990
2 28659   0.0145 124.9367 0003293 230.8941  95.0082  1.00272536 76012
GALAXY 28 (G-28)        
1 28702U 05022A   26063.15158765 -.00000211  00000+0  00000+0 0  9996
2 28702   3.0274  80.2535 0002288 263.6940 205.4381  1.00272049 50924
GALAXY 16 (G-16)        
1 29236U 06023A   26063.18586576 -.00000138  00000+0  00000+0 0  9997
2 29236   0.0452 235.8009 0002590 119.7827 134.2315  1.00263093 71925
DIRECTV 9S              
1 29494U 06043A   26063.13694093 -.00000125  00000+0  00000+0 0  9990
2 29494   2.1498  82.2061 0003157 267.1712 120.5957  1.00272298 50336
GALAXY 17 (G-17)        
1 31307U 07016B   26063.18030810 -.00000217  00000+0  00000+0 0  9995
2 31307   2.7061  81.2435 0003338 263.0978 157.4979  1.00272085 68750
DIRECTV 10              
1 31862U 07032A   26063.09586074 -.00000011  00000+0  00000+0 0  9999
2 31862   0.1311 100.9813 0006596 272.8650 234.3168  0.98336589 44530
INTELSAT 11 (IS-11)     
1 32253U 07044B   26063.13078756  .00000059  00000+0  00000+0 0  9996
2 32253   3.2919  79.9641 0005158 205.3432 151.3636  0.99048736 67403
HORIZONS-2              
1 32388U 07063B   26063.15600580 -.00000265  00000+0  00000+0 0  9994
2 32388   2.3314  81.9570 0002830 255.6966 166.6177  1.00271738 66769
